[{"OBJECT_NAME":"STARLINK-1456","OBJECT_ID":"2020-035S","EPOCH":"2026-03-09T22:34:56.373600","MEAN_MOTION":15.50051869,"ECCENTRICITY":0.00018137,"INCLINATION":53.0504,"RA_OF_ASC_NODE":45.1204,"ARG_OF_PERICENTER":106.2167,"MEAN_ANOMALY":253.9041,"EPHEMERIS_TYPE":0,"CLASSIFICATION_TYPE":"U","NORAD_CAT_ID":45673,"ELEMENT_SET_NO":999,"REV_AT_EPOCH":31906,"BSTAR":0.00055085133,"MEAN_MOTION_DOT":0.00031126,"MEAN_MOTION_DDOT":0},{"OBJECT_NAME":"JILIN-1 GAOFEN 03D52","OBJECT_ID":"2022-155E","EPOCH":"2026-03-09T23:35:25.140768","MEAN_MOTION":15.51754005,"ECCENTRICITY":0.00041872,"INCLINATION":97.6041,"RA_OF_ASC_NODE":205.6865,"ARG_OF_PERICENTER":23.2196,"MEAN_ANOMALY":336.9244,"EPHEMERIS_TYPE":0,"CLASSIFICATION_TYPE":"U","NORAD_CAT_ID":54255,"ELEMENT_SET_NO":999,"REV_AT_EPOCH":18428,"BSTAR":0.00078662811,"MEAN_MOTION_DOT":0.00047033,"MEAN_MOTION_DDOT":0}]
